[{"OBJECT_NAME":"LEMUR-2-ANDIS","OBJECT_ID":"2017-042P","EPOCH":"2026-03-09T13:25:33.116448","MEAN_MOTION":15.30557934,"ECCENTRICITY":0.0009101,"INCLINATION":97.3659,"RA_OF_ASC_NODE":249.795,"ARG_OF_PERICENTER":4.3248,"MEAN_ANOMALY":355.807,"EPHEMERIS_TYPE":0,"CLASSIFICATION_TYPE":"U","NORAD_CAT_ID":42838,"ELEMENT_SET_NO":999,"REV_AT_EPOCH":47319,"BSTAR":0.00079875,"MEAN_MOTION_DOT":0.00023598,"MEAN_MOTION_DDOT":0},{"OBJECT_NAME":"STARLINK-36047","OBJECT_ID":"2025-278E","EPOCH":"2026-03-09T12:45:01.080864","MEAN_MOTION":15.27601267,"ECCENTRICITY":0.00014602,"INCLINATION":43.0018,"RA_OF_ASC_NODE":115.3715,"ARG_OF_PERICENTER":254.6191,"MEAN_ANOMALY":105.4499,"EPHEMERIS_TYPE":0,"CLASSIFICATION_TYPE":"U","NORAD_CAT_ID":66795,"ELEMENT_SET_NO":999,"REV_AT_EPOCH":1518,"BSTAR":0.00059027417,"MEAN_MOTION_DOT":0.00016027,"MEAN_MOTION_DDOT":0}]
